[{"OBJECT_NAME":"ONEWEB-0540","OBJECT_ID":"2022-166D","EPOCH":"2026-03-09T21:47:48.093792","MEAN_MOTION":13.21825009,"ECCENTRICITY":0.0001487,"INCLINATION":87.9164,"RA_OF_ASC_NODE":263.7997,"ARG_OF_PERICENTER":91.4302,"MEAN_ANOMALY":268.7002,"EPHEMERIS_TYPE":0,"CLASSIFICATION_TYPE":"U","NORAD_CAT_ID":54645,"ELEMENT_SET_NO":999,"REV_AT_EPOCH":15841,"BSTAR":0.00016602844,"MEAN_MOTION_DOT":8.2e-7,"MEAN_MOTION_DDOT":0},{"OBJECT_NAME":"SL-14 DEB","OBJECT_ID":"1991-056BG","EPOCH":"2026-03-09T19:52:13.204704","MEAN_MOTION":13.19675144,"ECCENTRICITY":0.00085759,"INCLINATION":82.5703,"RA_OF_ASC_NODE":207.5061,"ARG_OF_PERICENTER":310.4458,"MEAN_ANOMALY":49.5918,"EPHEMERIS_TYPE":0,"CLASSIFICATION_TYPE":"U","NORAD_CAT_ID":45318,"ELEMENT_SET_NO":999,"REV_AT_EPOCH":29046,"BSTAR":0.00066831879,"MEAN_MOTION_DOT":2.8e-6,"MEAN_MOTION_DDOT":0}]
